{
  "norad_id": 64276,
  "name": "STARLINK-34350",
  "history": [
    {
      "epoch": "2026-03-28T12:49:12.357120Z",
      "apogee_km": 476.01005663231354,
      "perigee_km": 474.3440159900865,
      "latitude_deg": 6.376958801686094e-05,
      "longitude_deg": 10.736320964456741,
      "height_km": 475.94345613966345,
      "semi_major_axis_km": 6853.3140363112,
      "eccentricity": 0.00012155,
      "inclination_deg": 53.1584,
      "raan_deg": 28.991,
      "arg_perigee_deg": 80.912,
      "mean_anomaly_deg": 279.2019,
      "mean_motion_rev_day": 15.30212738
    },
    {
      "epoch": "2026-03-29T02:55:41.105856Z",
      "apogee_km": 475.830734045343,
      "perigee_km": 474.6396179611538,
      "latitude_deg": 2.6408909743128356e-05,
      "longitude_deg": 155.8076122200816,
      "height_km": 476.0277598398837,
      "semi_major_axis_km": 6853.372176003249,
      "eccentricity": 8.69e-05,
      "inclination_deg": 53.1593,
      "raan_deg": 26.2615,
      "arg_perigee_deg": 79.7507,
      "mean_anomaly_deg": 280.3592,
      "mean_motion_rev_day": 15.30193266
    },
    {
      "epoch": "2026-03-30T02:26:28.907808Z",
      "apogee_km": 475.7672501744746,
      "perigee_km": 474.69675393635316,
      "latitude_deg": 1.356163704483329e-05,
      "longitude_deg": 157.5920723842117,
      "height_km": 475.88136548058145,
      "semi_major_axis_km": 6853.369002055413,
      "eccentricity": 7.81e-05,
      "inclination_deg": 53.1594,
      "raan_deg": 21.7108,
      "arg_perigee_deg": 62.2259,
      "mean_anomaly_deg": 297.8821,
      "mean_motion_rev_day": 15.30194329
    },
    {
      "epoch": "2026-03-30T05:34:35.412384Z",
      "apogee_km": 475.7610962343715,
      "perigee_km": 474.67689531584074,
      "latitude_deg": 6.624007843740607e-05,
      "longitude_deg": 109.82975375208872,
      "height_km": 475.8808011414006,
      "semi_major_axis_km": 6853.355995775106,
      "eccentricity": 7.91e-05,
      "inclination_deg": 53.1596,
      "raan_deg": 21.1043,
      "arg_perigee_deg": 64.0794,
      "mean_anomaly_deg": 296.0289,
      "mean_motion_rev_day": 15.30198685
    },
    {
      "epoch": "2026-03-30T19:41:04.413408Z",
      "apogee_km": 475.8646110867521,
      "perigee_km": 474.4975111999156,
      "latitude_deg": -4.902475727313477e-06,
      "longitude_deg": -105.10073343886117,
      "height_km": 475.8153454386857,
      "semi_major_axis_km": 6853.318061143334,
      "eccentricity": 9.974e-05,
      "inclination_deg": 53.1596,
      "raan_deg": 18.3741,
      "arg_perigee_deg": 67.2597,
      "mean_anomaly_deg": 292.8509,
      "mean_motion_rev_day": 15.3021139
    },
    {
      "epoch": "2026-03-31T01:57:17.215200Z",
      "apogee_km": 475.88623201253995,
      "perigee_km": 474.556817525905,
      "latitude_deg": 4.6333902447099307e-05,
      "longitude_deg": 159.37515535879237,
      "height_km": 475.89802983543206,
      "semi_major_axis_km": 6853.358524769222,
      "eccentricity": 9.699e-05,
      "inclination_deg": 53.1607,
      "raan_deg": 17.1608,
      "arg_perigee_deg": 70.4783,
      "mean_anomaly_deg": 289.6323,
      "mean_motion_rev_day": 15.30197838
    },
    {
      "epoch": "2026-04-01T01:28:05.560608Z",
      "apogee_km": 475.8903580447586,
      "perigee_km": 474.4989946478272,
      "latitude_deg": 5.9815149138053365e-06,
      "longitude_deg": 161.15742523312593,
      "height_km": 476.06167802355475,
      "semi_major_axis_km": 6853.331676346293,
      "eccentricity": 0.00010151,
      "inclination_deg": 53.1606,
      "raan_deg": 12.6102,
      "arg_perigee_deg": 87.4059,
      "mean_anomaly_deg": 272.7058,
      "mean_motion_rev_day": 15.3020683
    },
    {
      "epoch": "2026-04-02T18:13:27.910848Z",
      "apogee_km": 476.0712495349626,
      "perigee_km": 474.1742672338414,
      "latitude_deg": 4.0876439013151386e-05,
      "longitude_deg": -99.74657108610852,
      "height_km": 475.8143735171793,
      "semi_major_axis_km": 6853.259758384402,
      "eccentricity": 0.0001384,
      "inclination_deg": 53.1619,
      "raan_deg": 4.7231,
      "arg_perigee_deg": 77.4213,
      "mean_anomaly_deg": 282.6943,
      "mean_motion_rev_day": 15.30230917
    },
    {
      "epoch": "2026-04-02T22:55:37.179552Z",
      "apogee_km": 475.9934182403176,
      "perigee_km": 474.3525987580824,
      "latitude_deg": 9.286732564444505e-06,
      "longitude_deg": -171.38894196121007,
      "height_km": 475.7797615132474,
      "semi_major_axis_km": 6853.310008499199,
      "eccentricity": 0.00011971,
      "inclination_deg": 53.1616,
      "raan_deg": 3.8125,
      "arg_perigee_deg": 69.1719,
      "mean_anomaly_deg": 290.941,
      "mean_motion_rev_day": 15.30214087
    },
    {
      "epoch": "2026-04-03T17:44:15.610848Z",
      "apogee_km": 476.52894244089657,
      "perigee_km": 473.7588463033908,
      "latitude_deg": 1.8720499099529934e-05,
      "longitude_deg": -97.9613923439791,
      "height_km": 475.8373298399268,
      "semi_major_axis_km": 6853.280894372143,
      "eccentricity": 0.0002021,
      "inclination_deg": 53.1618,
      "raan_deg": 0.1727,
      "arg_perigee_deg": 81.5383,
      "mean_anomaly_deg": 278.5847,
      "mean_motion_rev_day": 15.30223838
    },
    {
      "epoch": "2026-04-04T17:15:03.806784Z",
      "apogee_km": 476.04920554582077,
      "perigee_km": 474.20704787975956,
      "latitude_deg": -6.029773433584534e-05,
      "longitude_deg": -96.17872883700737,
      "height_km": 476.0137614389261,
      "semi_major_axis_km": 6853.265126712789,
      "eccentricity": 0.0001344,
      "inclination_deg": 53.1617,
      "raan_deg": 355.6219,
      "arg_perigee_deg": 89.2198,
      "mean_anomaly_deg": 270.8956,
      "mean_motion_rev_day": 15.30229119
    },
    {
      "epoch": "2026-04-05T10:29:39.286464Z",
      "apogee_km": 475.5472199116657,
      "perigee_km": 474.5957204476663,
      "latitude_deg": 7.805428798633065e-05,
      "longitude_deg": 1.1298885849917595,
      "height_km": 475.9318368203337,
      "semi_major_axis_km": 6853.208470179666,
      "eccentricity": 6.942e-05,
      "inclination_deg": 53.1609,
      "raan_deg": 352.2864,
      "arg_perigee_deg": 85.3482,
      "mean_anomaly_deg": 274.7599,
      "mean_motion_rev_day": 15.30248095
    },
    {
      "epoch": "2026-04-06T02:10:10.816608Z",
      "apogee_km": 475.54649467794843,
      "perigee_km": 474.9464124227552,
      "latitude_deg": -3.747020696611496e-05,
      "longitude_deg": 122.31955885468328,
      "height_km": 476.10656338265363,
      "semi_major_axis_km": 6853.383453550352,
      "eccentricity": 4.378e-05,
      "inclination_deg": 53.1617,
      "raan_deg": 349.2513,
      "arg_perigee_deg": 82.4837,
      "mean_anomaly_deg": 277.6213,
      "mean_motion_rev_day": 15.30189489
    },
    {
      "epoch": "2026-04-07T09:31:15.604896Z",
      "apogee_km": 475.6571040204035,
      "perigee_km": 474.6903760074174,
      "latitude_deg": -3.2622487675291625e-06,
      "longitude_deg": 4.694976344048992,
      "height_km": 476.1931140197762,
      "semi_major_axis_km": 6853.310740013911,
      "eccentricity": 7.053e-05,
      "inclination_deg": 53.1608,
      "raan_deg": 343.1842,
      "arg_perigee_deg": 104.427,
      "mean_anomaly_deg": 255.6809,
      "mean_motion_rev_day": 15.30213842
    },
    {
      "epoch": "2026-04-07T20:29:37.539744Z",
      "apogee_km": 475.50522999346686,
      "perigee_km": 474.8692415043897,
      "latitude_deg": 5.0034160418117885e-05,
      "longitude_deg": -162.4717157175881,
      "height_km": 476.37275617735634,
      "semi_major_axis_km": 6853.324235748928,
      "eccentricity": 4.64e-05,
      "inclination_deg": 53.1612,
      "raan_deg": 341.0595,
      "arg_perigee_deg": 206.1473,
      "mean_anomaly_deg": 153.9505,
      "mean_motion_rev_day": 15.30209322
    }
  ]
}